{"fetched_at":"2026-03-29T02:12:04Z","count":15717,"tles":[{"name":"STARLINK-2355","line1":"1 47895U 21021AM  26087.56560606 -.00000826  00000+0 -15741-4 0  9995","line2":"2 47895  53.1601 180.4733 0001324  84.6604 275.4548 15.30218569279110","category":"Starlink"}]}