{
  "norad_id": 47895,
  "name": "STARLINK-2355",
  "history": [
    {
      "epoch": "2026-03-28T13:34:28.363584",
      "apogee_km": 476.06768809606274,
      "perigee_km": 474.2515644900941,
      "latitude_deg": 48.50130994486023,
      "longitude_deg": 103.79818176012486,
      "semi_major_axis_km": 6853.296626293078,
      "eccentricity": 0.0001325,
      "inclination_deg": 53.1601,
      "raan_deg": 180.4733,
      "arg_perigee_deg": 84.6604,
      "mean_anomaly_deg": 275.4548,
      "mean_motion_rev_day": 15.30218569
    }
  ]
}